KUIPER-00044            
1 64505U 25134F   25206.75002315  .00016515  00000+0  78264-3 0  9990
2 64505  51.8701 176.1416 0011017 228.8421 132.3822 15.19379633  5729
KUIPER-00046            
1 64506U 25134G   25206.75002315 -.00457459  00000+0 -17086-1 0  9992
2 64506  51.8711 175.6271 0008423 234.6523  18.6625 15.28789238  3034
KUIPER-00047            
1 64507U 25134H   25206.30915828  .00034061  00000+0  10181-2 0  9994
2 64507  51.8627 177.6890 0009700 243.2804 116.7189 15.34222936  6130
KUIPER-00048            
1 64508U 25134J   25206.20354248  .00027486  00000+0  77269-3 0  9991
2 64508  51.8755 177.7700 0002767 210.3173 149.7654 15.36300204  5661
KUIPER-00049            
1 64509U 25134K   25206.28768856  .00012943  00000+0  38145-3 0  9996
2 64509  51.8705 177.5721 0006518 221.4725 138.5767 15.35350221  6139
KUIPER-00050            
1 64510U 25134L   25206.94181223  .00021407  00000+0  62751-3 0  9993
2 64510  51.8720 174.4568 0006817 224.2029 135.8412 15.35120395  6238
KUIPER-00051            
1 64511U 25134M   25206.93242040  .00027626  00000+0  79638-3 0  9999
2 64511  51.8718 174.3985 0005097 213.1452 146.9215 15.35504037  6237
KUIPER-00052            
1 64512U 25134N   25206.31659724  .00036464  00000+0  94917-3 0  9990
2 64512  51.8752 177.0340 0003259 231.4970 128.5726 15.38538665  6147
